STARLINK-31141          
1 58803U 24012S   26068.29670753 -.00022971  00000+0 -82861-3 0  9994
2 58803  42.9989 167.6553 0000713 245.7491 114.3286 15.27549168121178
BANDWAGON-4 OBJECT P    
1 66306U 25248P   26067.98083108  .00022647  00000+0  92291-3 0  9996
2 66306  45.4037 295.4322 0012078 209.3167 150.7044 15.24098352 19290
